{
    "links": {
        "self": "http://www.neowsapp.com/rest/v1/neo/3647190?api_key=iIulBulltgU6a56xZRHN4H3l9WmuAYTsLGpBGhQ2"
    },
    "id": "3647190",
    "neo_reference_id": "3647190",
    "name": "(2013 RR9)",
    "designation": "2013 RR9",
    "nasa_jpl_url": "http://ssd.jpl.nasa.gov/sbdb.cgi?sstr=3647190",
    "absolute_magnitude_h": 24.9,
    "estimated_diameter": {
        "kilometers": {
            "estimated_diameter_min": 0.0278326768,
            "estimated_diameter_max": 0.0622357573
        },
        "meters": {
            "estimated_diameter_min": 27.8326768072,
            "estimated_diameter_max": 62.2357573367
        },
        "miles": {
            "estimated_diameter_min": 0.0172944182,
            "estimated_diameter_max": 0.0386714948
        },
        "feet": {
            "estimated_diameter_min": 91.3145593761,
            "estimated_diameter_max": 204.1855621004
        }
    },
    "is_potentially_hazardous_asteroid": false,
    "close_approach_data": [
        {
            "close_approach_date": "2013-08-27",
            "close_approach_date_full": "2013-Aug-27 22:54",
            "epoch_date_close_approach": 1377644040000,
            "relative_velocity": {
                "kilometers_per_second": "9.4516468735",
                "kilometers_per_hour": "34025.9287447604",
                "miles_per_hour": "21142.3888914318"
            },
            "miss_distance": {
                "astronomical": "0.038443076",
                "lunar": "14.954356564",
                "kilometers": "5751002.28584812",
                "miles": "3573507.114699256"
            },
            "orbiting_body": "Earth"
        }
    ],
    "orbital_data": {
        "orbit_id": "10",
        "orbit_determination_date": "2017-04-06 08:44:53",
        "first_observation_date": "2013-09-03",
        "last_observation_date": "2013-09-07",
        "data_arc_in_days": 4,
        "observations_used": 59,
        "orbit_uncertainty": "8",
        "minimum_orbit_intersection": ".0186032",
        "jupiter_tisserand_invariant": "3.247",
        "epoch_osculation": "2456540.5",
        "eccentricity": ".5862219670184561",
        "semi_major_axis": "2.431421438077699",
        "inclination": "1.605989206496877",
        "ascending_node_longitude": "183.6046611489695",
        "orbital_period": "1384.805530336096",
        "perihelion_distance": "1.006068779996947",
        "perihelion_argument": "126.6465856338915",
        "aphelion_distance": "3.856774096158451",
        "perihelion_time": "2456513.353257059090",
        "mean_anomaly": "7.057184019445464",
        "mean_motion": ".259964299761734",
        "equinox": "J2000",
        "orbit_class": {
            "orbit_class_type": "APO",
            "orbit_class_description": "Near-Earth asteroid orbits which cross the Earth’s orbit similar to that of 1862 Apollo",
            "orbit_class_range": "a (semi-major axis) > 1.0 AU; q (perihelion) < 1.017 AU"
        }
    },
    "is_sentry_object": false
}